start=new Date('2022-03-01T00:00:00.000Z').valueOf();
sats=[{"SITE":"AFETR","ECCENTRICITY":"0.00016490","MEAN_ANOMALY":"303.2835","CLASSIFICATION_TYPE":"U","ELEMENT_SET_NO":"999","DECAY_DATE":null,"LAUNCH_DATE":"2020-10-24","RA_OF_ASC_NODE":"80.2504","INCLINATION":"53.0542","EPOCH":"2022-02-28T18:57:07.242624","TLE_LINE1":"1 46742U 20074D   22059.78966716  .00002052  00000-0  15656-3 0  9999","BSTAR":"0.00015656000000","MEAN_ELEMENT_THEORY":"SGP4","EPHEMERIS_TYPE":"0","PERIOD":"95.591","SEMIMAJOR_AXIS":"6925.314","OBJECT_NAME":"STARLINK-1872","MEAN_MOTION_DDOT":"0.0000000000000","MEAN_MOTION_DOT":"0.00002052","TIME_SYSTEM":"UTC","ARG_OF_PERICENTER":"56.8312","REF_FRAME":"TEME","GP_ID":"197411713","PERIAPSIS":"546.037","CENTER_NAME":"EARTH","MEAN_MOTION":"15.06411388","REV_AT_EPOCH":"7512","OBJECT_TYPE":"PAYLOAD","TLE_LINE2":"2 46742  53.0542  80.2504 0001649  56.8312 303.2835 15.06411388 75124","FILE":"3334872","APOAPSIS":"548.321","NORAD_CAT_ID":"46742","COUNTRY_CODE":"US","OBJECT_ID":"2020-074D","RCS_SIZE":"LARGE"},{"SITE":"AFETR","ECCENTRICITY":"0.00013170","MEAN_ANOMALY":"278.2194","ELEMENT_SET_NO":"999","CLASSIFICATION_TYPE":"U","DECAY_DATE":null,"LAUNCH_DATE":"2020-10-24","RA_OF_ASC_NODE":"82.2314","INCLINATION":"53.0542","EPOCH":"2022-02-28T08:20:11.770944","BSTAR":"0.00010712000000","TLE_LINE1":"1 46743U 20074E   22059.34735846  .00001315  00000-0  10712-3 0  9999","EPHEMERIS_TYPE":"0","MEAN_ELEMENT_THEORY":"SGP4","SEMIMAJOR_AXIS":"6925.322","PERIOD":"95.592","MEAN_MOTION_DOT":"0.00001315","MEAN_MOTION_DDOT":"0.0000000000000","OBJECT_NAME":"STARLINK-1892","REF_FRAME":"TEME","ARG_OF_PERICENTER":"81.8945","TIME_SYSTEM":"UTC","PERIAPSIS":"546.275","GP_ID":"197361081","MEAN_MOTION":"15.06408767","CENTER_NAME":"EARTH","REV_AT_EPOCH":"7506","OBJECT_TYPE":"PAYLOAD","TLE_LINE2":"2 46743  53.0542  82.2314 0001317  81.8945 278.2194 15.06408767 75067","FILE":"3333642","COUNTRY_CODE":"US","NORAD_CAT_ID":"46743","APOAPSIS":"548.099","OBJECT_ID":"2020-074E","RCS_SIZE":"LARGE"},{"COUNTRY_CODE":"US","NORAD_CAT_ID":"46744","APOAPSIS":"548.472","TLE_LINE2":"2 46744  53.0558  80.3624 0001837  48.5748 311.5399 15.06404614 75128","FILE":"3334872","OBJECT_TYPE":"PAYLOAD","REV_AT_EPOCH":"7512","RCS_SIZE":"LARGE","OBJECT_ID":"2020-074F","MEAN_ELEMENT_THEORY":"SGP4","EPHEMERIS_TYPE":"0","BSTAR":"0.00008543600000","TLE_LINE1":"1 46744U 20074F   22059.76386995  .00000991  00000-0  85436-4 0  9998","PERIAPSIS":"545.927","GP_ID":"197410711","CENTER_NAME":"EARTH","MEAN_MOTION":"15.06404614","REF_FRAME":"TEME","TIME_SYSTEM":"UTC","ARG_OF_PERICENTER":"48.5748","MEAN_MOTION_DOT":"0.00000991","OBJECT_NAME":"STARLINK-1894","MEAN_MOTION_DDOT":"0.0000000000000","SEMIMAJOR_AXIS":"6925.334","PERIOD":"95.592","INCLINATION":"53.0558","RA_OF_ASC_NODE":"80.3624","LAUNCH_DATE":"2020-10-24","EPOCH":"2022-02-28T18:19:58.363680","MEAN_ANOMALY":"311.5399","ECCENTRICITY":"0.00018370","SITE":"AFETR","DECAY_DATE":null,"ELEMENT_SET_NO":"999","CLASSIFICATION_TYPE":"U"},{"INCLINATION":"53.0559","LAUNCH_DATE":"2020-10-24","RA_OF_ASC_NODE":"54.9907","EPOCH":"2022-02-28T11:00:46.867392","ECCENTRICITY":"0.00084600","MEAN_ANOMALY":"75.6479","SITE":"AFETR","ELEMENT_SET_NO":"999","CLASSIFICATION_TYPE":"U","DECAY_DATE":null,"FILE":"3333642","TLE_LINE2":"2 46745  53.0559  54.9907 0008460 284.3586  75.6479 15.42171719 75450","COUNTRY_CODE":"US","NORAD_CAT_ID":"46745","APOAPSIS":"445.471","REV_AT_EPOCH":"7545","OBJECT_TYPE":"PAYLOAD","OBJECT_ID":"2020-074G","RCS_SIZE":"LARGE","MEAN_ELEMENT_THEORY":"SGP4","EPHEMERIS_TYPE":"0","BSTAR":"0.00002090100000","TLE_LINE1":"1 46745U 20074G   22059.45887578  .00000494  00000-0  20901-4 0  9992","REF_FRAME":"TEME","ARG_OF_PERICENTER":"284.3586","TIME_SYSTEM":"UTC","GP_ID":"197362076","PERIAPSIS":"433.935","CENTER_NAME":"EARTH","MEAN_MOTION":"15.42171719","SEMIMAJOR_AXIS":"6817.838","PERIOD":"93.375","MEAN_MOTION_DOT":"0.00000494","MEAN_MOTION_DDOT":"0.0000000000000","OBJECT_NAME":"STARLINK-1898"},{"EPOCH":"2022-02-28T13:54:35.365536","LAUNCH_DATE":"2020-10-24","RA_OF_ASC_NODE":"81.1974","INCLINATION":"53.0545","ELEMENT_SET_NO":"999","CLASSIFICATION_TYPE":"U","DECAY_DATE":null,"SITE":"AFETR","ECCENTRICITY":"0.00016180","MEAN_ANOMALY":"303.8900","OBJECT_ID":"2020-074H","RCS_SIZE":"LARGE","REV_AT_EPOCH":"7509","OBJECT_TYPE":"PAYLOAD","TLE_LINE2":"2 46746  53.0545  81.1974 0001618  56.2243 303.8900 15.06409484 75094","FILE":"3334872","NORAD_CAT_ID":"46746","APOAPSIS":"548.305","COUNTRY_CODE":"US","PERIOD":"95.592","SEMIMAJOR_AXIS":"6925.319","OBJECT_NAME":"STARLINK-1905","MEAN_MOTION_DDOT":"0.0000000000000","MEAN_MOTION_DOT":"0.00005118","ARG_OF_PERICENTER":"56.2243","TIME_SYSTEM":"UTC","REF_FRAME":"TEME","PERIAPSIS":"546.064","GP_ID":"197411214","CENTER_NAME":"EARTH","MEAN_MOTION":"15.06409484","TLE_LINE1":"1 46746U 20074H   22059.57957599  .00005118  00000-0  36212-3 0  9996","BSTAR":"0.00036212000000","MEAN_ELEMENT_THEORY":"SGP4","EPHEMERIS_TYPE":"0"},{"OBJECT_ID":"2020-074J","RCS_SIZE":"LARGE","REV_AT_EPOCH":"7512","OBJECT_TYPE":"PAYLOAD","TLE_LINE2":"2 46747  53.0563  80.3791 0001653  57.7733 302.3416 15.06402330 75125","FILE":"3334872","COUNTRY_CODE":"US","APOAPSIS":"548.351","NORAD_CAT_ID":"46747","SEMIMAJOR_AXIS":"6925.341","PERIOD":"95.592","MEAN_MOTION_DOT":"0.00002567","MEAN_MOTION_DDOT":"0.0000000000000","OBJECT_NAME":"STARLINK-1908","REF_FRAME":"TEME","TIME_SYSTEM":"UTC","ARG_OF_PERICENTER":"57.7733","CENTER_NAME":"EARTH","GP_ID":"197409962","PERIAPSIS":"546.062","MEAN_MOTION":"15.06402330","BSTAR":"0.00019116000000","TLE_LINE1":"1 46747U 20074J   22059.76018352  .00002567  00000-0  19116-3 0  9992","EPHEMERIS_TYPE":"0","MEAN_ELEMENT_THEORY":"SGP4","EPOCH":"2022-02-28T18:14:39.856128","LAUNCH_DATE":"2020-10-24","RA_OF_ASC_NODE":"80.3791","INCLINATION":"53.0563","ELEMENT_SET_NO":"999","CLASSIFICATION_TYPE":"U","DECAY_DATE":null,"SITE":"AFETR","ECCENTRICITY":"0.00016530","MEAN_ANOMALY":"302.3416"},{"RCS_SIZE":"LARGE","OBJECT_ID":"2020-074K","OBJECT_TYPE":"PAYLOAD","REV_AT_EPOCH":"7512","APOAPSIS":"548.208","NORAD_CAT_ID":"46748","COUNTRY_CODE":"US","FILE":"3334872","TLE_LINE2":"2 46748  53.0550  80.3599 0001426  55.3528 304.7595 15.06397709 75129","OBJECT_NAME":"STARLINK-1910","MEAN_MOTION_DDOT":"0.0000000000000","MEAN_MOTION_DOT":"-0.00000568","PERIOD":"95.592","SEMIMAJOR_AXIS":"6925.356","CENTER_NAME":"EARTH","GP_ID":"197410212","PERIAPSIS":"546.233","MEAN_MOTION":"15.06397709","TIME_SYSTEM":"UTC","ARG_OF_PERICENTER":"55.3528","REF_FRAME":"TEME","TLE_LINE1":"1 46748U 20074K   22059.76756091 -.00000568  00000-0 -19227-4 0  9997","BSTAR":"-0.00001922700000","EPHEMERIS_TYPE":"0","MEAN_ELEMENT_THEORY":"SGP4","EPOCH":"2022-02-28T18:25:17.262624","RA_OF_ASC_NODE":"80.3599","LAUNCH_DATE":"2020-10-24","INCLINATION":"53.0550","DECAY_DATE":null,"ELEMENT_SET_NO":"999","CLASSIFICATION_TYPE":"U","SITE":"AFETR","MEAN_ANOMALY":"304.7595","ECCENTRICITY":"0.00014260"},{"RCS_SIZE":"LARGE","OBJECT_ID":"2020-074L","COUNTRY_CODE":"US","APOAPSIS":"548.381","NORAD_CAT_ID":"46749","FILE":"3334872","TLE_LINE2":"2 46749  53.0552  81.2210 0001656  61.0729 299.0426 15.06393430 75096","OBJECT_TYPE":"PAYLOAD","REV_AT_EPOCH":"7509","MEAN_MOTION":"15.06393430","GP_ID":"197410964","PERIAPSIS":"546.087","CENTER_NAME":"EARTH","REF_FRAME":"TEME","TIME_SYSTEM":"UTC","ARG_OF_PERICENTER":"61.0729","MEAN_MOTION_DOT":"0.00001026","MEAN_MOTION_DDOT":"0.0000000000000","OBJECT_NAME":"STARLINK-1911","SEMIMAJOR_AXIS":"6925.369","PERIOD":"95.593","MEAN_ELEMENT_THEORY":"SGP4","EPHEMERIS_TYPE":"0","BSTAR":"0.00008777300000","TLE_LINE1":"1 46749U 20074L   22059.57589793  .00001026  00000-0  87773-4 0  9999","EPOCH":"2022-02-28T13:49:17.581152","INCLINATION":"53.0552","RA_OF_ASC_NODE":"81.2210","LAUNCH_DATE":"2020-10-24","DECAY_DATE":null,"ELEMENT_SET_NO":"999","CLASSIFICATION_TYPE":"U","MEAN_ANOMALY":"299.0426","ECCENTRICITY":"0.00016560","SITE":"AFETR"},{"EPOCH":"2022-02-28T10:32:53.905056","INCLINATION":"53.0538","RA_OF_ASC_NODE":"81.8301","LAUNCH_DATE":"2020-10-24","DECAY_DATE":null,"ELEMENT_SET_NO":"999","CLASSIFICATION_TYPE":"U","MEAN_ANOMALY":"295.3223","ECCENTRICITY":"0.00016410","SITE":"AFETR","RCS_SIZE":"LARGE","OBJECT_ID":"2020-074N","COUNTRY_CODE":"US","NORAD_CAT_ID":"46751","APOAPSIS":"548.328","TLE_LINE2":"2 46751  53.0538  81.8301 0001641  64.7936 295.3223 15.06407133 75072","FILE":"3333642","OBJECT_TYPE":"PAYLOAD","REV_AT_EPOCH":"7507","PERIAPSIS":"546.055","GP_ID":"197360839","MEAN_MOTION":"15.06407133","CENTER_NAME":"EARTH","REF_FRAME":"TEME","TIME_SYSTEM":"UTC","ARG_OF_PERICENTER":"64.7936","MEAN_MOTION_DOT":"0.00002868","MEAN_MOTION_DDOT":"0.0000000000000","OBJECT_NAME":"STARLINK-1920","SEMIMAJOR_AXIS":"6925.327","PERIOD":"95.592","EPHEMERIS_TYPE":"0","MEAN_ELEMENT_THEORY":"SGP4","BSTAR":"0.00021135000000","TLE_LINE1":"1 46751U 20074N   22059.43951279  .00002868  00000-0  21135-3 0  9993"},{"LAUNCH_DATE":"2020-10-24","RA_OF_ASC_NODE":"81.4761","INCLINATION":"53.0524","EPOCH":"2022-02-28T12:24:21.962304","SITE":"AFETR","ECCENTRICITY":"0.00019630","MEAN_ANOMALY":"303.3758","ELEMENT_SET_NO":"999","CLASSIFICATION_TYPE":"U","DECAY_DATE":null,"REV_AT_EPOCH":"7508","OBJECT_TYPE":"PAYLOAD","FILE":"3333642","TLE_LINE2":"2 46752  53.0524  81.4761 0001963  56.7419 303.3758 15.06408363 75088","COUNTRY_CODE":"US","NORAD_CAT_ID":"46752","APOAPSIS":"548.547","OBJECT_ID":"2020-074P","RCS_SIZE":"LARGE","BSTAR":"0.00075928000000","TLE_LINE1":"1 46752U 20074P   22059.51692086  .00011048  00000-0  75928-3 0  9990","EPHEMERIS_TYPE":"0","MEAN_ELEMENT_THEORY":"SGP4","SEMIMAJOR_AXIS":"6925.323","PERIOD":"95.592","MEAN_MOTION_DOT":"0.00011048","MEAN_MOTION_DDOT":"0.0000000000000","OBJECT_NAME":"STARLINK-1921","REF_FRAME":"TEME","ARG_OF_PERICENTER":"56.7419","TIME_SYSTEM":"UTC","PERIAPSIS":"545.828","GP_ID":"197361082","MEAN_MOTION":"15.06408363","CENTER_NAME":"EARTH"}];
